[{"OBJECT_NAME":"STARLINK-5107","OBJECT_ID":"2022-177G","EPOCH":"2026-03-09T03:39:15.895584","MEAN_MOTION":15.02534347,"ECCENTRICITY":0.00014405,"INCLINATION":43.0068,"RA_OF_ASC_NODE":136.3272,"ARG_OF_PERICENTER":274.1431,"MEAN_ANOMALY":85.9247,"EPHEMERIS_TYPE":0,"CLASSIFICATION_TYPE":"U","NORAD_CAT_ID":54826,"ELEMENT_SET_NO":999,"REV_AT_EPOCH":17687,"BSTAR":-3.3472329e-5,"MEAN_MOTION_DOT":-6.56e-6,"MEAN_MOTION_DDOT":0},{"OBJECT_NAME":"NOAA 16 DEB","OBJECT_ID":"2000-055NX","EPOCH":"2026-03-08T23:11:13.556832","MEAN_MOTION":15.01016664,"ECCENTRICITY":0.00157984,"INCLINATION":98.8636,"RA_OF_ASC_NODE":259.6913,"ARG_OF_PERICENTER":295.8562,"MEAN_ANOMALY":64.1029,"EPHEMERIS_TYPE":0,"CLASSIFICATION_TYPE":"U","NORAD_CAT_ID":41658,"ELEMENT_SET_NO":999,"REV_AT_EPOCH":9741,"BSTAR":0.010110988,"MEAN_MOTION_DOT":0.00131742,"MEAN_MOTION_DDOT":0}]
